#dP2023 11 23  6  0  0.00000000      96 __u+U IGS20 EXT  IAC
## 2289 367200.00000000   900.00000000 60271 0.2500000000000
+  118   C06C07C08C09C10C11C12C13C14C16C19C20C21C22C23C24C25
+        C26C27C28C29C30C32C33C34C35C36C37C38C39C40C41C42C43
+        C44C45C46E02E03E04E05E07E08E09E10E11E12E13E15E19E21
+        E24E25E26E27E30E31E33E34E36G01G02G03G04G05G06G07G08
+        G09G10G11G12G13G14G15G16G17G18G19G20G21G22G23G24G25
+        G26G27G28G29G30G31G32J02J03J04R01R02R03R04R05R07R08
+        R09R11R12R13R14R15R16R17R18R19R20R21R22R24R25R26  0
++        10  9 11 10  9 10 10 11 10 10  9  9 10  9  9  9  9
++         9  9  9 10 10  9  9  9 10 10  9 10 10 11 10  8  9
++         9  9  9  9  8  9  9  9  9  8  9  9  9  9  8  9  9
++         9  9  9  9  9  9  9  8  9 10  9  9  8  9  9  8  9
++         9  9  9  9  9  9  8  9  9  9  9  8  9  9  9  8  8
++         9  9  9  9  8  9  9  8 10 10  9  9  9 10 10 10  9
++         9  9  9 10  8  9  9  9  9  9  8  9  9  8  9  8  0
%c M  cc GPS ccc cccc cccc cccc cccc ccccc ccccc ccccc ccccc
%c cc cc ccc ccc cccc cccc cccc cccc ccccc ccccc ccccc ccccc
%f  0.0000000  0.000000000  0.00000000000  0.000000000000000
%f  0.0000000  0.000000000  0.00000000000  0.000000000000000
%i    0    0    0    0      0      0      0      0         0
%i    0    0    0    0      0      0      0      0         0
/* IAC                                ULTRA-RAPID PREDICTION
/* S/V CLOCKS ARE ALIGNED TO GNSS TIME                      
/* G:C1WC2W R:C1PC2P E:C1XC5X C:C2IC6I J:C1CC2S             
/* PCV:IGS20_2287 OL/AL:FES2004  NONE     YN ORB:CoN CLK:CoN
*  2023 11 24  5  0  0.00000000
PC06  -3131.144958  26359.365716  32841.249187     37.742673
PC07 -17618.671341  32843.339814 -19815.377302   -367.260479
PC08  -6319.908221  40408.762102  -9791.597444    222.251199
PC09   6629.938377  30514.519790  29022.850150   -129.091420
PC10  -9368.181982  32632.159186 -24984.515169    -28.324516
PC11 -21478.755508   4810.764609 -17088.970853    271.777065
PC12 -26683.472346  -8171.842823   -458.512418    848.363408
PC13  -2036.665814  41770.740465  -3829.511091    386.850897
PC14 -22142.108886  16153.914109  -5378.313337    845.330011
PC16  -6183.023018  24420.957334  34099.668022   -191.139499
PC19  18042.391519 -20913.937186  -3907.084425   -963.830184
PC20  22815.664242 -10135.251488  12451.025286     89.595489
PC21 -14174.836788  -7786.319467 -22735.587728   -970.000250
PC22   2592.559855 -20271.003974 -19003.765804   -213.089165
PC23   3711.883965  27367.278007   3963.408470   -815.646354
PC24 -16734.057156   -667.600663  22307.550209    626.628889
PC25  -8176.454544  19622.211257  18054.974698    262.647692
PC26 -15289.990846 -18896.288161  13720.777608   -210.586990
PC27  23523.308290  12841.436459  -7807.302018    232.521298
PC28   8940.677895  17302.284001 -19974.583615    175.603363
PC29  13356.125345 -12006.891465  21358.484703    205.485482
PC30  26537.191161    666.716535   8636.240397     -8.968998
PC32  14141.389123   7812.142851  22761.737808   -537.033363
PC33 -17970.563423  21012.997592   3811.292688   -943.595396
PC34 -26058.729736    404.482162  -9958.738862    310.123278
PC35  -9620.861235 -17018.063873  19894.474598    495.985839
PC36   9150.881732 -18733.793240 -18538.696758   -121.273943
PC37  14625.416048  19725.431995 -13224.504625   -897.991129
PC38 -10560.065183  37038.046020 -16927.707208    119.692171
PC39  -9602.754297  22240.667417  34562.032166     -5.795295
PC40 -25027.705997  27611.898526 -19957.473547    -45.190401
PC41  -3212.459753  20627.535068  18567.323237   -871.643239
PC42 -22649.791018   8906.299864 -13634.057987   -493.271231
PC43 -14278.630692  11630.620142 -20965.696175     49.526256
PC44 -23867.422537 -12056.691175   7925.022469    302.196741
PC45  -4075.567010 -27408.972191  -3434.224679    -48.951259
PC46  16407.690574   -645.679304 -22569.218392   -102.179661
PE02 -12312.116380  26625.004926   3877.609766     81.009026
PE03 -15217.635526  16609.257461  19194.973054    -75.527661
PE04  -6949.349107 -15823.154082 -24031.173927   -264.548932
PE05 -28371.880164   7765.279704   3281.793487   4693.900900
PE07  24790.238082   5983.656818  15021.439510    -89.440229
PE08   6284.651936  15846.543202  24190.431489   -181.745201
PE09 -24699.813726  -5967.388607 -15193.515376   -238.721529
PE10 -19038.292181 -22662.954701    691.317312   -581.203976
PE11 -22522.030255 -16587.443042  -9678.965837   3228.054529
PE12 -12933.960570 -24751.995227   9798.102585   -790.009053
PE13  22413.363593  17100.397263   9031.653729    -19.610108
PE15  12627.635010  24721.776299 -10260.580379    -71.106126
PE19  17637.174229 -15808.325182 -17758.748853  -1152.376960
PE21  18540.551009 -12675.876615 -19285.605621   -565.616735
PE24 -14083.010703  -9973.673875  24037.862163   -448.610239
PE25 -18565.996154  12273.247348  19515.414312     -2.968905
PE26  18707.830938  -1163.726897  22917.904223    289.938561
PE27  14328.504228   9341.143110 -24155.145752   -207.511584
PE30   1433.292178  25777.638354 -14472.733110   -687.097096
PE31  -1720.072707 -25618.700972  14740.847746    -10.528158
PE33   4942.539051 -17350.507135  23478.409320      2.949676
PE34  -4396.189144  17755.154831 -23266.439643    -79.638004
PE36 -18944.266137    388.604886 -22731.742712   -148.305380
PG01  20275.379231  12683.914103  11569.700829    163.294114
PG02  21321.741866  14915.824994   6342.948126   -524.847721
PG03  14218.652394   3786.069424  21961.954456      6.719745
PG04  25301.287059   1834.635926   8097.989189    221.306789
PG05  -8380.168415 -16973.796405 -18773.109215   -151.553009
PG06  -1128.242808 -19631.557809  17878.662934    497.611403
PG07  15884.182202  -3998.122404 -20519.917835      5.447273
PG08  20650.011445   6764.765821 -15630.597810   -153.593257
PG09  25493.756463  -7188.758273  -2453.619341      6.232204
PG10 -10776.408992  23803.701520  -3440.348371    -62.595170
PG11 -10462.628864 -22956.266148   8412.265126   -473.098604
PG12 -13710.347552  -6110.562661  21635.412522   -450.295318
PG13 -11306.552664 -13360.389984 -20242.670181    598.575047
PG14  13527.343938 -21708.451179  -6785.564868    251.948225
PG15 -21311.558432  -4934.414740 -15697.869114    100.184725
PG16   2415.510370  21239.165785 -15781.326703   -416.612613
PG17  17403.861547 -13038.458632  15775.244810    722.910341
PG18 -14338.604847   5697.556755 -21627.573247   -487.815970
PG19   8541.913817 -14566.919244  20217.231996    403.151308
PG20  -1895.772854 -25195.287171  -8434.466832    400.070901
PG21  20737.027949  17207.751858   3103.829626    143.446449
PG22  10364.516252 -24615.414605   1142.820214     78.275968
PG23 -15476.373344  15538.077444 -14836.209338    104.154172
PG24 -21469.445212 -14723.479934   5882.526437   -378.375749
PG25 -16665.252203   7805.224240  18726.759988    478.713253
PG26  -1990.866029  25542.182894  -6382.942780    214.459202
PG27   7778.149469  13773.533947 -21647.838545    -74.143374
PG28   -318.941073  18890.971960  18643.603347    -53.284432
PG29 -26186.507249   4310.454718  -2076.396722   -610.139514
PG30   8044.929116 -14208.575917 -20788.795664   -464.950695
PG31   6555.413404  22094.510922  12625.334099   -226.018904
PG32 -13003.255897  15135.299047  17608.617279   -589.231048
PJ02 -32258.765681  25825.524657  13709.378352     -0.273925
PJ03 -24023.132233  18139.340356 -24874.612764     -9.338517
PJ04 -26109.120015  33293.022662   4037.415965     72.885434
PR01  19277.518402  -3992.362030  16214.150156     70.552582
PR02  21426.097427 -13910.970168   -266.955772    -22.322331
PR03  10875.219945 -16314.303431 -16314.816006     89.608110
PR04  -5148.134443  -9441.217816 -23106.592965    212.380971
PR05 -18514.128845   2274.287771 -17375.916863    122.739100
PR07 -10015.481683  16129.498272  17038.632255     69.832106
PR08   5545.940579   9367.975648  23121.470684    -73.386486
PR09  -8789.475103  13228.272600  20003.084574    154.930767
PR11   6082.917405  22930.899043  -9384.524410   -215.487133
PR12  10992.817344   6584.140457 -22031.486559     33.766939
PR13   9370.569239 -10808.712607 -21137.466611    -41.624810
PR14   1515.336530 -24565.717582  -6661.194398     25.604408
PR15  -6531.703280 -22225.103438  10692.670711     84.535921
PR16 -10882.684987  -6834.929116  22034.798805     20.920341
PR17  -1142.410627 -12099.598075  22449.153341     37.633820
PR18 -16136.834298 -15016.129699  12819.675684    113.503940
PR19 -22563.419745 -11752.823239  -1906.618962   -255.756888
PR20 -16098.251983    977.020073 -19733.551370   -104.028213
PR21   1692.199363  12255.287945 -22293.505148    -55.764627
PR22  16367.992487  15618.324308 -11760.208989     95.012621
PR24  15810.275270  -2374.130736  19893.671520    -33.327346
PR25    456.112911  12374.737113 -22286.383605     -4.053138
PR26   4934.679447   9738.305395  23069.902282    -15.358262
EOF
